[{"OBJECT_NAME":"ONEWEB-0171","OBJECT_ID":"2021-025AE","EPOCH":"2025-10-31T17:08:12.486624","MEAN_MOTION":13.13470912,"ECCENTRICITY":0.000194,"INCLINATION":87.9019,"RA_OF_ASC_NODE":5.6532,"ARG_OF_PERICENTER":101.0447,"MEAN_ANOMALY":259.09,"EPHEMERIS_TYPE":0,"CLASSIFICATION_TYPE":"U","NORAD_CAT_ID":48070,"ELEMENT_SET_NO":999,"REV_AT_EPOCH":22362,"BSTAR":0.00066234,"MEAN_MOTION_DOT":2.55e-6,"MEAN_MOTION_DDOT":0},{"OBJECT_NAME":"ONEWEB-0172","OBJECT_ID":"2021-025AF","EPOCH":"2025-10-31T16:38:57.141024","MEAN_MOTION":13.13469379,"ECCENTRICITY":0.0002045,"INCLINATION":87.9035,"RA_OF_ASC_NODE":5.6319,"ARG_OF_PERICENTER":99.2672,"MEAN_ANOMALY":260.8689,"EPHEMERIS_TYPE":0,"CLASSIFICATION_TYPE":"U","NORAD_CAT_ID":48071,"ELEMENT_SET_NO":999,"REV_AT_EPOCH":22451,"BSTAR":0.00080708,"MEAN_MOTION_DOT":3.07e-6,"MEAN_MOTION_DDOT":0},{"OBJECT_NAME":"ONEWEB-0174","OBJECT_ID":"2021-025AG","EPOCH":"2025-10-31T16:12:08.083584","MEAN_MOTION":13.13469818,"ECCENTRICITY":0.0001834,"INCLINATION":87.9026,"RA_OF_ASC_NODE":5.6439,"ARG_OF_PERICENTER":94.7176,"MEAN_ANOMALY":265.4163,"EPHEMERIS_TYPE":0,"CLASSIFICATION_TYPE":"U","NORAD_CAT_ID":48072,"ELEMENT_SET_NO":999,"REV_AT_EPOCH":22383,"BSTAR":-0.00048432,"MEAN_MOTION_DOT":-1.64e-6,"MEAN_MOTION_DDOT":0},{"OBJECT_NAME":"ONEWEB-0175","OBJECT_ID":"2021-025AH","EPOCH":"2025-10-31T15:06:19.137024","MEAN_MOTION":13.13470823,"ECCENTRICITY":0.0002123,"INCLINATION":87.9034,"RA_OF_ASC_NODE":5.6199,"ARG_OF_PERICENTER":106.1632,"MEAN_ANOMALY":253.9731,"EPHEMERIS_TYPE":0,"CLASSIFICATION_TYPE":"U","NORAD_CAT_ID":48073,"ELEMENT_SET_NO":999,"REV_AT_EPOCH":22348,"BSTAR":0.00078764,"MEAN_MOTION_DOT":3.0e-6,"MEAN_MOTION_DDOT":0},{"OBJECT_NAME":"ONEWEB-0177","OBJECT_ID":"2021-025AJ","EPOCH":"2025-10-31T17:13:03.622656","MEAN_MOTION":13.13472319,"ECCENTRICITY":0.0001897,"INCLINATION":87.9036,"RA_OF_ASC_NODE":5.6209,"ARG_OF_PERICENTER":94.5934,"MEAN_ANOMALY":265.5412,"EPHEMERIS_TYPE":0,"CLASSIFICATION_TYPE":"U","NORAD_CAT_ID":48074,"ELEMENT_SET_NO":999,"REV_AT_EPOCH":22368,"BSTAR":0.00040532,"MEAN_MOTION_DOT":1.61e-6,"MEAN_MOTION_DDOT":0},{"OBJECT_NAME":"ONEWEB-0178","OBJECT_ID":"2021-025AK","EPOCH":"2025-10-31T17:40:05.462112","MEAN_MOTION":13.13469748,"ECCENTRICITY":0.0002168,"INCLINATION":87.9033,"RA_OF_ASC_NODE":5.6627,"ARG_OF_PERICENTER":99.069,"MEAN_ANOMALY":261.0684,"EPHEMERIS_TYPE":0,"CLASSIFICATION_TYPE":"U","NORAD_CAT_ID":48075,"ELEMENT_SET_NO":999,"REV_AT_EPOCH":22373,"BSTAR":-0.00075963,"MEAN_MOTION_DOT":-2.65e-6,"MEAN_MOTION_DDOT":0},{"OBJECT_NAME":"ONEWEB-0108","OBJECT_ID":"2021-025AL","EPOCH":"2025-10-31T16:41:22.495200","MEAN_MOTION":13.13472283,"ECCENTRICITY":0.0001608,"INCLINATION":87.9034,"RA_OF_ASC_NODE":5.6159,"ARG_OF_PERICENTER":100.4579,"MEAN_ANOMALY":259.6731,"EPHEMERIS_TYPE":0,"CLASSIFICATION_TYPE":"U","NORAD_CAT_ID":48076,"ELEMENT_SET_NO":999,"REV_AT_EPOCH":22365,"BSTAR":0.00098167,"MEAN_MOTION_DOT":3.71e-6,"MEAN_MOTION_DDOT":0},{"OBJECT_NAME":"ONEWEB-0169","OBJECT_ID":"2021-025AM","EPOCH":"2025-10-31T17:27:42.042816","MEAN_MOTION":13.13469183,"ECCENTRICITY":0.0001597,"INCLINATION":87.9036,"RA_OF_ASC_NODE":5.6323,"ARG_OF_PERICENTER":99.3808,"MEAN_ANOMALY":260.7502,"EPHEMERIS_TYPE":0,"CLASSIFICATION_TYPE":"U","NORAD_CAT_ID":48077,"ELEMENT_SET_NO":999,"REV_AT_EPOCH":22231,"BSTAR":-0.0002954,"MEAN_MOTION_DOT":-9.5e-7,"MEAN_MOTION_DDOT":0},{"OBJECT_NAME":"ONEWEB-0176","OBJECT_ID":"2021-031A","EPOCH":"2025-10-31T14:20:05.244288","MEAN_MOTION":13.14500883,"ECCENTRICITY":0.0002045,"INCLINATION":87.9008,"RA_OF_ASC_NODE":335.2406,"ARG_OF_PERICENTER":96.9546,"MEAN_ANOMALY":263.1816,"EPHEMERIS_TYPE":0,"CLASSIFICATION_TYPE":"U","NORAD_CAT_ID":48210,"ELEMENT_SET_NO":999,"REV_AT_EPOCH":21828,"BSTAR":-0.00017438,"MEAN_MOTION_DOT":-5.2e-7,"MEAN_MOTION_DDOT":0},{"OBJECT_NAME":"ONEWEB-0184","OBJECT_ID":"2021-031B","EPOCH":"2025-10-31T19:10:05.825856","MEAN_MOTION":13.14501751,"ECCENTRICITY":0.0002651,"INCLINATION":87.9022,"RA_OF_ASC_NODE":335.1766,"ARG_OF_PERICENTER":104.3825,"MEAN_ANOMALY":255.7599,"EPHEMERIS_TYPE":0,"CLASSIFICATION_TYPE":"U","NORAD_CAT_ID":48211,"ELEMENT_SET_NO":999,"REV_AT_EPOCH":21828,"BSTAR":-0.00041936,"MEAN_MOTION_DOT":-1.43e-6,"MEAN_MOTION_DDOT":0},{"OBJECT_NAME":"ONEWEB-0179","OBJECT_ID":"2021-031C","EPOCH":"2025-10-31T14:48:38.092320","MEAN_MOTION":13.14502647,"ECCENTRICITY":0.0001872,"INCLINATION":87.9011,"RA_OF_ASC_NODE":335.2242,"ARG_OF_PERICENTER":91.6713,"MEAN_ANOMALY":268.4631,"EPHEMERIS_TYPE":0,"CLASSIFICATION_TYPE":"U","NORAD_CAT_ID":48212,"ELEMENT_SET_NO":999,"REV_AT_EPOCH":21830,"BSTAR":0.00068972,"MEAN_MOTION_DOT":2.68e-6,"MEAN_MOTION_DDOT":0},{"OBJECT_NAME":"ONEWEB-0180","OBJECT_ID":"2021-031D","EPOCH":"2025-10-31T15:35:26.127744","MEAN_MOTION":13.14503634,"ECCENTRICITY":0.0002117,"INCLINATION":87.9023,"RA_OF_ASC_NODE":335.2123,"ARG_OF_PERICENTER":90.2118,"MEAN_ANOMALY":269.9255,"EPHEMERIS_TYPE":0,"CLASSIFICATION_TYPE":"U","NORAD_CAT_ID":48213,"ELEMENT_SET_NO":999,"REV_AT_EPOCH":21819,"BSTAR":-0.00033639,"MEAN_MOTION_DOT":-1.12e-6,"MEAN_MOTION_DDOT":0},{"OBJECT_NAME":"ONEWEB-0218","OBJECT_ID":"2021-031E","EPOCH":"2025-10-31T19:46:38.415072","MEAN_MOTION":13.14502951,"ECCENTRICITY":0.0002818,"INCLINATION":87.9018,"RA_OF_ASC_NODE":335.1782,"ARG_OF_PERICENTER":99.0417,"MEAN_ANOMALY":261.1032,"EPHEMERIS_TYPE":0,"CLASSIFICATION_TYPE":"U","NORAD_CAT_ID":48214,"ELEMENT_SET_NO":999,"REV_AT_EPOCH":21837,"BSTAR":-0.00017466,"MEAN_MOTION_DOT":-5.2e-7,"MEAN_MOTION_DDOT":0},{"OBJECT_NAME":"ONEWEB-0209","OBJECT_ID":"2021-031F","EPOCH":"2025-10-31T19:30:38.536128","MEAN_MOTION":13.14503266,"ECCENTRICITY":0.0001956,"INCLINATION":87.9014,"RA_OF_ASC_NODE":335.2212,"ARG_OF_PERICENTER":88.5498,"MEAN_ANOMALY":271.5855,"EPHEMERIS_TYPE":0,"CLASSIFICATION_TYPE":"U","NORAD_CAT_ID":48215,"ELEMENT_SET_NO":999,"REV_AT_EPOCH":21837,"BSTAR":-0.00048831,"MEAN_MOTION_DOT":-1.68e-6,"MEAN_MOTION_DDOT":0},{"OBJECT_NAME":"ONEWEB-0198","OBJECT_ID":"2021-031G","EPOCH":"2025-10-31T15:28:46.566624","MEAN_MOTION":13.14500672,"ECCENTRICITY":0.0002319,"INCLINATION":87.9012,"RA_OF_ASC_NODE":335.2522,"ARG_OF_PERICENTER":90.8063,"MEAN_ANOMALY":269.3333,"EPHEMERIS_TYPE":0,"CLASSIFICATION_TYPE":"U","NORAD_CAT_ID":48216,"ELEMENT_SET_NO":999,"REV_AT_EPOCH":21846,"BSTAR":-0.00034008,"MEAN_MOTION_DOT":-1.13e-6,"MEAN_MOTION_DDOT":0},{"OBJECT_NAME":"ONEWEB-0189","OBJECT_ID":"2021-031H","EPOCH":"2025-10-31T12:07:37.308288","MEAN_MOTION":13.14502279,"ECCENTRICITY":0.0002266,"INCLINATION":87.9013,"RA_OF_ASC_NODE":335.2535,"ARG_OF_PERICENTER":92.3013,"MEAN_ANOMALY":267.8376,"EPHEMERIS_TYPE":0,"CLASSIFICATION_TYPE":"U","NORAD_CAT_ID":48217,"ELEMENT_SET_NO":999,"REV_AT_EPOCH":21818,"BSTAR":-0.0011693,"MEAN_MOTION_DOT":-4.21e-6,"MEAN_MOTION_DDOT":0},{"OBJECT_NAME":"ONEWEB-0196","OBJECT_ID":"2021-031J","EPOCH":"2025-10-31T15:14:52.333152","MEAN_MOTION":13.14503708,"ECCENTRICITY":0.0001965,"INCLINATION":87.901,"RA_OF_ASC_NODE":335.2419,"ARG_OF_PERICENTER":90.1776,"MEAN_ANOMALY":269.9579,"EPHEMERIS_TYPE":0,"CLASSIFICATION_TYPE":"U","NORAD_CAT_ID":48218,"ELEMENT_SET_NO":999,"REV_AT_EPOCH":21820,"BSTAR":0.00046,"MEAN_MOTION_DOT":1.83e-6,"MEAN_MOTION_DDOT":0}]
