ONEWEB-0171             
1 48070U 21025AE  25304.71403341  .00000255  00000+0  66234-3 0  9991
2 48070  87.9019   5.6532 0001940 101.0447 259.0900 13.13470912223628
ONEWEB-0172             
1 48071U 21025AF  25304.69371691  .00000307  00000+0  80708-3 0  9991
2 48071  87.9035   5.6319 0002045  99.2672 260.8689 13.13469379224513
ONEWEB-0174             
1 48072U 21025AG  25304.67509356 -.00000164  00000+0 -48432-3 0  9992
2 48072  87.9026   5.6439 0001834  94.7176 265.4163 13.13469818223831
ONEWEB-0175             
1 48073U 21025AH  25304.62938816  .00000300  00000+0  78764-3 0  9996
2 48073  87.9034   5.6199 0002123 106.1632 253.9731 13.13470823223483
ONEWEB-0177             
1 48074U 21025AJ  25304.71740304  .00000161  00000+0  40532-3 0  9997
2 48074  87.9036   5.6209 0001897  94.5934 265.5412 13.13472319223689
ONEWEB-0178             
1 48075U 21025AK  25304.73617433 -.00000265  00000+0 -75963-3 0  9999
2 48075  87.9033   5.6627 0002168  99.0690 261.0684 13.13469748223732
ONEWEB-0108             
1 48076U 21025AL  25304.69539925  .00000371  00000+0  98167-3 0  9991
2 48076  87.9034   5.6159 0001608 100.4579 259.6731 13.13472283223650
ONEWEB-0169             
1 48077U 21025AM  25304.72756994 -.00000095  00000+0 -29540-3 0  9997
2 48077  87.9036   5.6323 0001597  99.3808 260.7502 13.13469183222310
ONEWEB-0176             
1 48210U 21031A   25304.59728292 -.00000052  00000+0 -17438-3 0  9994
2 48210  87.9008 335.2406 0002045  96.9546 263.1816 13.14500883218283
ONEWEB-0184             
1 48211U 21031B   25304.79867854 -.00000143  00000+0 -41936-3 0  9996
2 48211  87.9022 335.1766 0002651 104.3825 255.7599 13.14501751218285
ONEWEB-0179             
1 48212U 21031C   25304.61710755  .00000268  00000+0  68972-3 0  9990
2 48212  87.9011 335.2242 0001872  91.6713 268.4631 13.14502647218308
ONEWEB-0180             
1 48213U 21031D   25304.64960796 -.00000112  00000+0 -33639-3 0  9998
2 48213  87.9023 335.2123 0002117  90.2118 269.9255 13.14503634218199
ONEWEB-0218             
1 48214U 21031E   25304.82405573 -.00000052  00000+0 -17466-3 0  9999
2 48214  87.9018 335.1782 0002818  99.0417 261.1032 13.14502951218379
ONEWEB-0209             
1 48215U 21031F   25304.81294602 -.00000168  00000+0 -48831-3 0  9996
2 48215  87.9014 335.2212 0001956  88.5498 271.5855 13.14503266218377
ONEWEB-0198             
1 48216U 21031G   25304.64498341 -.00000113  00000+0 -34008-3 0  9995
2 48216  87.9012 335.2522 0002319  90.8063 269.3333 13.14500672218462
ONEWEB-0189             
1 48217U 21031H   25304.50529292 -.00000421  00000+0 -11693-2 0  9997
2 48217  87.9013 335.2535 0002266  92.3013 267.8376 13.14502279218185
ONEWEB-0196             
1 48218U 21031J   25304.63532793  .00000183  00000+0  46000-3 0  9996
2 48218  87.9010 335.2419 0001965  90.1776 269.9579 13.14503708218200
